0 COSMOS 2251 DEB
1 34815U 93036ABE 13281.63946480  .00003854  00000-0  94740-3 0  7633
2 34815 074.0520 080.8289 0094680 211.5994 274.9521 14.49947688237826
0 COSMOS 2251 DEB
1 34815U 93036ABE 13283.41544023  .00005504  00000-0  13489-2 0  7643
2 34815 074.0519 077.4977 0094595 207.8349 185.2595 14.49968782238089
0 COSMOS 2251 DEB
1 34815U 93036ABE 13285.84771506  .00004843  00000-0  11878-2 0  7656
2 34815 074.0516 072.9335 0094459 202.7069 281.4941 14.49987780238438
0 COSMOS 2251 DEB
1 34815U 93036ABE 13287.84824074  .00007055  00000-0  17258-2 0  7664
2 34815 074.0518 069.1792 0094333 198.5054 284.1645 14.50006188238721
0 COSMOS 2251 DEB
1 34815U 93036ABE 13289.85004855  .00007466  00000-0  18252-2 0  7676
2 34815 074.0526 065.4229 0094189 194.2962 293.6930 14.50029307239017
0 COSMOS 2251 DEB
1 34815U 93036ABE 13292.38977075  .00006008  00000-0  14699-2 0  7684
2 34815 074.0534 060.6575 0093991 188.9404 231.4075 14.50060435239385
0 COSMOS 2251 DEB
1 34815U 93036ABE 13295.15047838  .00007337  00000-0  17924-2 0  7698
2 34815 074.0537 055.4774 0093761 183.0818 243.0466 14.50089294239782
